#dP2022  1  1  0  0  0.00000000     289 ORBIT ITRF  BHN ESOC                    
## 2190 518400.00000000   300.00000000 59580 0.0000000000000                    
+  117   G13G28G21G22G07G05G20G31G17G15G16G29G12G19G02G25G01                    
+        G30G24G27G06G09G03G32G26G08G10G04G18G23G14G11R09R11                    
+        R20R19R13R01R22R08R03R07R02R17R14R18R21R05R15R12R04                    
+        R24E11E12E19E18E14E26E24E30E08E09E01E02E07E03E04E05                    
+        E21E25E27E31E36E13E15E33C11C12C14C19C20C27C28C22C21                    
+        C29C30C23C24C26C25C32C33C35C34C36C37C46C45C44C43C41                    
+        C42C06C07C08C09C10C13C16C38C39C40J01J02J03J04  0  0                    
++         4  5  4  5  4  4  4  4  5  4  5  5  5  5  5  4  4                    
++         4  4  4  4  4  4  4  5  4  4  4  4  4  4  4  5  5                    
++         6  6  5  5  6  5  5  5  5  4  5  4  5  5  5  5  5                    
++         6  5  4  5  3  4  5  4  5  4  4  4  4  4  5  5  5                    
++         5  5  5  4  4  5  4  5  5  5  5  5  5  5  5  5  6                    
++         5  5  5  5  5  5  5  5  5  5  5  5  6  6  5  5  6                    
++         6  7  6  7  6  7  7  6  8  7  7  7  6  7  7  0  0                    
%c M  cc GPS ccc cccc cccc cccc cccc ccccc ccccc ccccc ccccc                    
%c cc cc ccc ccc cccc cccc cccc cccc ccccc ccccc ccccc ccccc                    
%f  0.0000000  0.000000000  0.00000000000  0.000000000000000                    
%f  0.0000000  0.000000000  0.00000000000  0.000000000000000                    
%i    0    0    0    0      0      0      0      0         0                    
%i    0    0    0    0      0      0      0      0         0                    
/* CCCCCCCCCCCCCCCCCCCCCCCCCCCCCCCCCCCCCCCCCCCCCCCCCCCCCCCCCCCCCCCCCCCCCCCCCCCCC
/* CCCCCCCCCCCCCCCCCCCCCCCCCCCCCCCCCCCCCCCCCCCCCCCCCCCCCCCCCCCCCCCCCCCCCCCCCCCCC
/* CCCCCCCCCCCCCCCCCCCCCCCCCCCCCCCCCCCCCCCCCCCCCCCCCCCCCCCCCCCCCCCCCCCCCCCCCCCCC
/* PCV:IGS        OL/AL:EOT11A   NONE     YN ORB:CoN CLK:CoN                    
*  2022  1  1  4  0  0.00000000                                                 
PE11  -1933.462735 -21072.630122  20690.890404   4774.115235                    
*  2022  1  1  4  5  0.00000000                                                 
PE11  -1501.057273 -20612.092909  21185.009861   4774.091282                    
*  2022  1  1  4 10  0.00000000                                                 
PE11  -1047.155974 -20152.290873  21649.815153   4774.067304                    
*  2022  1  1  4 15  0.00000000                                                 
PE11   -572.231407 -19694.571236  22084.663861   4774.043307                    
*  2022  1  1  4 20  0.00000000                                                 
PE11    -76.833564 -19240.256938  22488.955059   4774.019342                    
*  2022  1  1  4 25  0.00000000                                                 
PE11    438.411808 -18790.642088  22862.130142   4773.995338                    
*  2022  1  1  4 30  0.00000000                                                 
PE11    972.805131 -18346.987515  23203.673589   4773.971344                    
*  2022  1  1  4 35  0.00000000                                                 
PE11   1525.575186 -17910.516443  23513.113680   4773.947375                    
*  2022  1  1  4 40  0.00000000                                                 
PE11   2095.881546 -17482.410302  23790.023134   4773.923385                    
*  2022  1  1  4 45  0.00000000                                                 
PE11   2682.817261 -17063.804691  24034.019703   4773.899405                    
*  2022  1  1  4 50  0.00000000                                                 
PE11   3285.411769 -16655.785495  24244.766689   4773.875470                    
*  2022  1  1  4 55  0.00000000                                                 
PE11   3902.634032 -16259.385195  24421.973410   4773.851503                    
*  2022  1  1  5  0  0.00000000                                                 
PE11   4533.395881 -15875.579357  24565.395590   4773.827578                    
*  2022  1  1  5  5  0.00000000                                                 
PE11   5176.555571 -15505.283326  24674.835699   4773.803587                    
*  2022  1  1  5 10  0.00000000                                                 
PE11   5830.921513 -15149.349140  24750.143215   4773.779649                    
*  2022  1  1  5 15  0.00000000                                                 
PE11   6495.256186 -14808.562659  24791.214828   4773.755691                    
*  2022  1  1  5 20  0.00000000                                                 
PE11   7168.280209 -14483.640938  24797.994581   4773.731732                    
*  2022  1  1  5 25  0.00000000                                                 
PE11   7848.676565 -14175.229840  24770.473937   4773.707790                    
*  2022  1  1  5 30  0.00000000                                                 
PE11   8535.094953 -13883.901899  24708.691790   4773.683750                    
*  2022  1  1  5 35  0.00000000                                                 
PE11   9226.156254 -13610.154447  24612.734406   4773.659713                    
*  2022  1  1  5 40  0.00000000                                                 
PE11   9920.457110 -13354.408003  24482.735297   4773.635702                    
*  2022  1  1  5 45  0.00000000                                                 
PE11  10616.574579 -13117.004938  24318.875035   4773.611669                    
*  2022  1  1  5 50  0.00000000                                                 
PE11  11313.070862 -12898.208411  24121.380995   4773.587683                    
*  2022  1  1  5 55  0.00000000                                                 
PE11  12008.498089 -12698.201589  23890.527041   4773.563684                    
*  2022  1  1  6  0  0.00000000                                                 
PE11  12701.403138 -12517.087146  23626.633139   4773.539660                    
*  2022  1  1  6  5  0.00000000                                                 
PE11  13390.332469 -12354.887052  23330.064918   4773.515659                    
*  2022  1  1  6 10  0.00000000                                                 
PE11  14073.836972 -12211.542637  23001.233153   4773.491669                    
*  2022  1  1  6 15  0.00000000                                                 
PE11  14750.476794 -12086.914950  22640.593203   4773.467623                    
*  2022  1  1  6 20  0.00000000                                                 
PE11  15418.826136 -11980.785395  22248.644375   4773.443616                    
*  2022  1  1  6 25  0.00000000                                                 
PE11  16077.478009 -11892.856647  21825.929231   4773.419592                    
*  2022  1  1  6 30  0.00000000                                                 
PE11  16725.048920 -11822.753854  21373.032837   4773.395607                    
*  2022  1  1  6 35  0.00000000                                                 
PE11  17360.183480 -11770.026101  20890.581957   4773.371627                    
*  2022  1  1  6 40  0.00000000                                                 
PE11  17981.558921 -11734.148148  20379.244177   4773.347653                    
*  2022  1  1  6 45  0.00000000                                                 
PE11  18587.889496 -11714.522436  19839.726990   4773.323716                    
*  2022  1  1  6 50  0.00000000                                                 
PE11  19177.930753 -11710.481333  19272.776810   4773.299686                    
*  2022  1  1  6 55  0.00000000                                                 
PE11  19750.483673 -11721.289647  18679.177947   4773.275696                    
*  2022  1  1  7  0  0.00000000                                                 
PE11  20304.398644 -11746.147357  18059.751516   4773.251752                    
*  2022  1  1  7  5  0.00000000                                                 
PE11  20838.579274 -11784.192589  17415.354305   4773.227811                    
*  2022  1  1  7 10  0.00000000                                                 
PE11  21351.986015 -11834.504802  16746.877592   4773.203868                    
*  2022  1  1  7 15  0.00000000                                                 
PE11  21843.639594 -11896.108186  16055.245911   4773.179963                    
*  2022  1  1  7 20  0.00000000                                                 
PE11  22312.624234 -11967.975250  15341.415778   4773.155971                    
*  2022  1  1  7 25  0.00000000                                                 
PE11  22758.090666 -12049.030595  14606.374364   4773.131965                    
*  2022  1  1  7 30  0.00000000                                                 
PE11  23179.258897 -12138.154866  13851.138136   4773.107973                    
*  2022  1  1  7 35  0.00000000                                                 
PE11  23575.420753 -12234.188839  13076.751451   4773.084010                    
*  2022  1  1  7 40  0.00000000                                                 
PE11  23945.942167 -12335.937675  12284.285113   4773.060035                    
*  2022  1  1  7 45  0.00000000                                                 
PE11  24290.265215 -12442.175277  11474.834896   4773.036043                    
*  2022  1  1  7 50  0.00000000                                                 
PE11  24607.909888 -12551.648778  10649.520028   4773.012055                    
*  2022  1  1  7 55  0.00000000                                                 
PE11  24898.475599 -12663.083113   9809.481644   4772.988055                    
EOF
